[{"OBJECT_NAME":"IRIDIUM 179","OBJECT_ID":"2023-068W","EPOCH":"2026-03-09T22:21:59.547744","MEAN_MOTION":14.80238607,"ECCENTRICITY":0.00023232,"INCLINATION":86.672,"RA_OF_ASC_NODE":75.5287,"ARG_OF_PERICENTER":95.2951,"MEAN_ANOMALY":264.8536,"EPHEMERIS_TYPE":0,"CLASSIFICATION_TYPE":"U","NORAD_CAT_ID":56730,"ELEMENT_SET_NO":999,"REV_AT_EPOCH":15168,"BSTAR":8.1626328e-5,"MEAN_MOTION_DOT":6.46e-6,"MEAN_MOTION_DDOT":0},{"OBJECT_NAME":"KUIPER-00046","OBJECT_ID":"2025-134G","EPOCH":"2026-03-09T16:29:16.822464","MEAN_MOTION":14.79921021,"ECCENTRICITY":7.337e-5,"INCLINATION":51.8972,"RA_OF_ASC_NODE":243.0618,"ARG_OF_PERICENTER":109.9358,"MEAN_ANOMALY":250.1684,"EPHEMERIS_TYPE":0,"CLASSIFICATION_TYPE":"U","NORAD_CAT_ID":64506,"ELEMENT_SET_NO":999,"REV_AT_EPOCH":3993,"BSTAR":0.00014933614,"MEAN_MOTION_DOT":9.17e-6,"MEAN_MOTION_DDOT":0}]
